IONOSFERA-M 2           
1 61736U 24199B   26197.62420092  .00000019  00000+0  28126-4 0  9990
2 61736  98.7131  70.3907 0000552 127.3165 232.8064 14.22762723135018
PRSC-EO1                
1 62725U 25012A   26197.59763647  .00003422  00000+0  17336-3 0  9997
2 62725  97.4214 269.4807 0006891 142.5252 217.6463 15.17631246 82658
BIOMASS                 
1 63772U 25090A   26197.49094928  .00000234  00000+0  49666-4 0  9994
2 63772  98.0750  24.3792 0001447  88.8226 271.3144 14.67535671 64987
GOSAT-GW (IBUKI GW)     
1 64694U 25141A   26197.57635819  .00000287  00000+0  59027-4 0  9994
2 64694  98.0565 134.4160 0001438  85.0445 275.0924 14.67555144 56153
IONOSFERA-M 3           
1 64876U 25155A   26197.59787676 -.00000001  00000+0  19025-4 0  9991
2 64876  98.6041 158.7652 0002333 110.4893 249.6535 14.21490934 50581
IONOSFERA-M 4           
1 64877U 25155B   26197.63266764  .00000008  00000+0  23067-4 0  9994
2 64877  98.6040 158.7163 0001844  98.2656 261.8731 14.21493352 50585
MICROCARB               
1 64899U 25156A   26197.16188208  .00000245  00000+0  46050-4 0  9993
2 64899  98.0075 273.8504 0017693 167.7282 192.4360 14.72885650 52238
CO3D 3                  
1 64900U 25156B   26197.54460138  .00002233  00000+0  10625-3 0  9990
2 64900  97.4334 275.8157 0001751  93.9319 266.2117 15.20198170 53999
CO3D 4                  
1 64901U 25156C   26197.54475254  .00000646  00000+0  32979-4 0  9999
2 64901  97.4336 275.8157 0001661 150.2568 209.8762 15.20192359 53997
CO3D 2                  
1 64902U 25156D   26197.51140479  .00002124  00000+0  10120-3 0  9991
2 64902  97.4335 275.6817 0001245  90.8794 269.2584 15.20207099 53985
CO3D 1                  
1 64903U 25156E   26197.57738090  .00002271  00000+0  10800-3 0  9998
2 64903  97.4336 275.7467 0001330 101.4661 258.6724 15.20207955 53996
PRSC-S1                 
1 65055U 25164A   26197.63157531  .00002112  00000+0  15174-3 0  9991
2 65055  41.1301 121.9532 0006940 207.0562 152.9891 15.06641599 52870
SENTINEL-6B             
1 66514U 25264A   26197.36430656 -.00000039  00000+0  93722-4 0  9998
2 66514  66.0412  74.5783 0007847 268.6090  91.4026 12.80930173 30902
CAS500-3                
1 66655U 25274F   26197.52736567  .00000571  00000+0  67425-4 0  9994
2 66655  97.7436 124.9112 0006171  34.6553 325.5065 14.88385623 34514
CSG-3                   
1 67304U 26001A   26194.52815792  .00000135  00000+0  23485-4 0  9994
2 67304  97.8894  17.7492 0001518  93.3222 266.8165 14.82151371 28369
PRSC-E03                
1 68835U 26092A   26197.61300273  .00001106  00000+0  80114-4 0  9991
2 68835  38.0011 276.1444 0004991 259.8367 100.1832 15.06812555 12394
CAS500-2                
1 69013U 26100AK  26197.62994607  .00003084  00000+0  14248-3 0  9992
2 69013  97.3861  94.9254 0007734 285.7714  74.2668 15.20911913 11280
