OBJECT_NAME,OBJECT_ID,EPOCH,MEAN_MOTION,ECCENTRICITY,INCLINATION,RA_OF_ASC_NODE,ARG_OF_PERICENTER,MEAN_ANOMALY,EPHEMERIS_TYPE,CLASSIFICATION_TYPE,NORAD_CAT_ID,ELEMENT_SET_NO,REV_AT_EPOCH,BSTAR,MEAN_MOTION_DOT,MEAN_MOTION_DDOT
IONOSFERA-M 2,2024-199B,2026-07-16T14:58:50.959488,14.22762723,.00005524,98.7131,70.3907,127.3165,232.8064,0,U,61736,999,13501,.28125687E-4,.19E-6,0
PRSC-EO1,2025-012A,2026-07-16T14:20:35.791008,15.17631246,.00068916,97.4214,269.4807,142.5252,217.6463,0,U,62725,999,8265,.17335641E-3,.3422E-4,0
BIOMASS,2025-090A,2026-07-16T11:46:58.017792,14.67535671,.00014475,98.0750,24.3792,88.8226,271.3144,0,U,63772,999,6498,.49665864E-4,.234E-5,0
GOSAT-GW (IBUKI GW),2025-141A,2026-07-16T13:49:57.347616,14.67555144,.00014386,98.0565,134.4160,85.0445,275.0924,0,U,64694,999,5615,.59026892E-4,.287E-5,0
IONOSFERA-M 3,2025-155A,2026-07-16T14:20:56.552064,14.21490934,.00023333,98.6041,158.7652,110.4893,249.6535,0,U,64876,999,5058,.19024944E-4,-.1E-7,0
IONOSFERA-M 4,2025-155B,2026-07-16T15:11:02.484096,14.21493352,.00018446,98.6040,158.7163,98.2656,261.8731,0,U,64877,999,5058,.23066859E-4,.8E-7,0
MICROCARB,2025-156A,2026-07-16T03:53:06.611712,14.72885650,.00176935,98.0075,273.8504,167.7282,192.4360,0,U,64899,999,5223,.46050365E-4,.245E-5,0
CO3D 3,2025-156B,2026-07-16T13:04:13.559232,15.20198170,.00017519,97.4334,275.8157,93.9319,266.2117,0,U,64900,999,5399,.10625264E-3,.2233E-4,0
CO3D 4,2025-156C,2026-07-16T13:04:26.619456,15.20192359,.00016614,97.4336,275.8157,150.2568,209.8762,0,U,64901,999,5399,.32979239E-4,.646E-5,0
CO3D 2,2025-156D,2026-07-16T12:16:25.373856,15.20207099,.00012459,97.4335,275.6817,90.8794,269.2584,0,U,64902,999,5398,.10119837E-3,.2124E-4,0
CO3D 1,2025-156E,2026-07-16T13:51:25.709760,15.20207955,.00013303,97.4336,275.7467,101.4661,258.6724,0,U,64903,999,5399,.10799966E-3,.2271E-4,0
PRSC-S1,2025-164A,2026-07-16T15:09:28.106784,15.06641599,.00069401,41.1301,121.9532,207.0562,152.9891,0,U,65055,999,5287,.15173731E-3,.2112E-4,0
SENTINEL-6B,2025-264A,2026-07-16T08:44:36.086784,12.80930173,.00078476,66.0412,74.5783,268.6090,91.4026,0,U,66514,999,3090,.9372187E-4,-.39E-6,0
CAS500-3,2025-274F,2026-07-16T12:39:24.393888,14.88385623,.00061717,97.7436,124.9112,34.6553,325.5065,0,U,66655,999,3451,.67425255E-4,.571E-5,0
CSG-3,2026-001A,2026-07-13T12:40:32.844288,14.82151371,.00015181,97.8894,17.7492,93.3222,266.8165,0,U,67304,999,2836,.2348529E-4,.135E-5,0
PRSC-E03,2026-092A,2026-07-16T14:42:43.435872,15.06812555,.00049913,38.0011,276.1444,259.8367,100.1832,0,U,68835,999,1239,.80113706E-4,.1106E-4,0
CAS500-2,2026-100AK,2026-07-16T15:07:07.340448,15.20911913,.00077345,97.3861,94.9254,285.7714,74.2668,0,U,69013,999,1128,.14247895E-3,.3084E-4,0
